INTELSAT 21 (IS-21)     
1 38749U 12045A   26169.52693990 -.00000291  00000+0  00000+0 0  9991
2 38749   0.0178   9.6518 0001442  99.7246 289.0825  1.00277966 50531
INTELSAT 23 (IS-23)     
1 38867U 12057A   26169.45663266 -.00000291  00000+0  00000+0 0  9990
2 38867   0.0114 318.5348 0000163  62.9506 356.5856  1.00267542 49963
FM-6                    
1 39360U 13058A   26169.51541317  .00000000  00000+0  00000+0 0  9997
2 39360   0.0333  48.8344 0003220 148.7006 138.4746  1.00287718 46081
INTELSAT 30 (IS-30)     
1 40271U 14062A   26169.51957319 -.00000157  00000+0  00000+0 0  9993
2 40271   0.0277  53.4911 0001427 324.6893 340.5674  1.00270086  6801
DIRECTV 14              
1 40333U 14078B   26169.51879319 -.00000131  00000+0  00000+0 0  9994
2 40333   0.0104   4.1445 0000553 313.8676  36.2724  1.00269682 42054
DIRECTV 15              
1 40663U 15026A   26169.51801318 -.00000108  00000+0  00000+0 0  9992
2 40663   0.0140  51.8886 0000377 270.9775  27.4775  1.00267898 40474
SKY MEXICO-1            
1 40664U 15026B   26169.52277988 -.00000241  00000+0  00000+0 0  9992
2 40664   0.0118  45.6269 0002164  59.1547 271.3749  1.00274733 40462
INTELSAT 34 (IS-34)     
1 40874U 15039A   26169.51276029 -.00000292  00000+0  00000+0 0  9999
2 40874   0.0092   7.1617 0000428 323.8360  64.8508  1.00269408 39640
INTELSAT 31 (IS-31)     
1 41581U 16035A   26169.51957319 -.00000157  00000+0  00000+0 0  9990
2 41581   0.0156 292.5842 0000915 320.2559 105.9081  1.00273052 36694
INTELSAT 36 (IS-36)     
1 41747U 16053A   26169.55181334 -.00000031  00000+0  00000+0 0  9995
2 41747   0.0144  19.7909 0002081 313.7201 200.4230  1.00271248 35977
INTELSAT 32E (IS-32E)   
1 41945U 17007B   26169.52988659 -.00000275  00000+0  00000+0 0  9997
2 41945   0.0177   7.0361 0000987 324.9165  82.3849  1.00268167 34238
INTELSAT 35E (IS-35E)   
1 42818U 17041A   26169.46027269  .00000000  00000+0  00000+0 0  9994
2 42818   0.0196  10.0898 0002003  78.7192 309.0921  1.00271137 32827
INTELSAT 37E (IS-37E)   
1 42950U 17059A   26169.60605576  .00000000  00000+0  00000+0 0  9999
2 42950   0.0207  14.8074 0002590  97.8054 354.4310  1.00269170 32083
AZERSPACE 2 (IS-38)     
1 43632U 18074A   26169.47604609  .00000130  00000+0  00000+0 0  9990
2 43632   0.0177  12.1555 0001290  76.3170  34.7186  1.00271426 28462
HORIZONS-3E             
1 43633U 18074B   26169.57190892 -.00000037  00000+0  00000+0 0  9993
2 43633   0.0085 101.9714 0000776 173.2693   6.4569  1.00271511 28354
AT&T T-16               
1 44333U 19034A   26169.51844653 -.00000122  00000+0  00000+0 0  9998
2 44333   0.0213  64.3039 0000712 241.0117  47.2208  1.00272817 25644
INTELSAT 39 (IS-39)     
1 44476U 19049B   26169.59224809  .00000000  00000+0  00000+0 0  9999
2 44476   0.0192   7.9058 0000901 304.4232 229.6669  1.00273932 25145
GALAXY 30 (G-30)        
1 46114U 20056C   26169.58499566  .00000031  00000+0  00000+0 0  9997
2 46114   0.0005 358.2439 0002143  87.8738 266.2948  1.00272092 21304
GALAXY 33 (G-33)        
1 54026U 22128A   26169.58334898  .00000073  00000+0  00000+0 0  9992
2 54026   0.0166  41.1207 0001650  41.8279 260.8775  1.00269760 13752
GALAXY 34 (G-34)        
1 54027U 22128B   26169.64307292  .00000052  00000+0  00000+0 0  9995
2 54027   0.0104  30.3042 0001513  67.6466 271.4326  1.00274211 13920
GALAXY 31 (G-31)        
1 54243U 22153A   26169.58577566  .00000007  00000+0  00000+0 0  9999
2 54243   0.0167  73.5964 0001087   4.7088 278.3816  1.00271552  7141
GALAXY 32 (G-32)        
1 54244U 22153B   26169.59166903 -.00000181  00000+0  00000+0 0  9994
2 54244   0.0111  25.1390 0002080   9.2508 354.4398  1.00271685 13154
GALAXY 35 (G-35)        
1 54741U 22170A   26169.52000653 -.00000168  00000+0  00000+0 0  9992
2 54741   0.0147  40.8490 0001800  42.9723 277.0248  1.00271956 12909
GALAXY 36 (G-36)        
1 54742U 22170B   26169.62622627 -.00000192  00000+0  00000+0 0  9992
2 54742   0.0139 170.5363 0002512 273.4342 319.3284  1.00272554 12781
GALAXY 37 (G-37)        
1 57493U 23112A   26169.58456233  .00000042  00000+0  00000+0 0  9991
2 57493   0.0185 339.4936 0001909 106.0391 264.7299  1.00270120 10553
