OBJECT_NAME,OBJECT_ID,EPOCH,MEAN_MOTION,ECCENTRICITY,INCLINATION,RA_OF_ASC_NODE,ARG_OF_PERICENTER,MEAN_ANOMALY,EPHEMERIS_TYPE,CLASSIFICATION_TYPE,NORAD_CAT_ID,ELEMENT_SET_NO,REV_AT_EPOCH,BSTAR,MEAN_MOTION_DOT,MEAN_MOTION_DDOT
INTELSAT 21 (IS-21),2012-045A,2026-06-18T12:38:47.607360,1.00277966,.00014421,0.0178,9.6518,99.7246,289.0825,0,U,38749,999,5053,0,-.291E-5,0
INTELSAT 23 (IS-23),2012-057A,2026-06-18T10:57:33.061824,1.00267542,.0000163,0.0114,318.5348,62.9506,356.5856,0,U,38867,999,4996,0,-.291E-5,0
FM-6,2013-058A,2026-06-18T12:22:11.697888,1.00287718,.00032209,0.0333,48.8344,148.7006,138.4746,0,U,39360,999,4608,0,0,0
INTELSAT 30 (IS-30),2014-062A,2026-06-18T12:28:11.123616,1.00270086,.00014276,0.0277,53.4911,324.6893,340.5674,0,U,40271,999,680,0,-.157E-5,0
DIRECTV 14,2014-078B,2026-06-18T12:27:03.731616,1.00269682,.00005531,0.0104,4.1445,313.8676,36.2724,0,U,40333,999,4205,0,-.131E-5,0
DIRECTV 15,2015-026A,2026-06-18T12:25:56.338752,1.00267898,.00003777,0.0140,51.8886,270.9775,27.4775,0,U,40663,999,4047,0,-.108E-5,0
SKY MEXICO-1,2015-026B,2026-06-18T12:32:48.181632,1.00274733,.00021647,0.0118,45.6269,59.1547,271.3749,0,U,40664,999,4046,0,-.241E-5,0
INTELSAT 34 (IS-34),2015-039A,2026-06-18T12:18:22.489056,1.00269408,.00004283,0.0092,7.1617,323.8360,64.8508,0,U,40874,999,3964,0,-.292E-5,0
INTELSAT 31 (IS-31),2016-035A,2026-06-18T12:28:11.123616,1.00273052,.00009155,0.0156,292.5842,320.2559,105.9081,0,U,41581,999,3669,0,-.157E-5,0
INTELSAT 36 (IS-36),2016-053A,2026-06-18T13:14:36.672576,1.00271248,.00020814,0.0144,19.7909,313.7201,200.4230,0,U,41747,999,3597,0,-.31E-6,0
INTELSAT 32E (IS-32E),2017-007B,2026-06-18T12:43:02.201376,1.00268167,.00009877,0.0177,7.0361,324.9165,82.3849,0,U,41945,999,3423,0,-.275E-5,0
INTELSAT 35E (IS-35E),2017-041A,2026-06-18T11:02:47.560416,1.00271137,.00020032,0.0196,10.0898,78.7192,309.0921,0,U,42818,999,3282,0,0,0
INTELSAT 37E (IS-37E),2017-059A,2026-06-18T14:32:43.217664,1.00269170,.000259,0.0207,14.8074,97.8054,354.4310,0,U,42950,999,3208,0,0,0
AZERSPACE 2 (IS-38),2018-074A,2026-06-18T11:25:30.382176,1.00271426,.00012906,0.0177,12.1555,76.3170,34.7186,0,U,43632,999,2846,0,.13E-5,0
HORIZONS-3E,2018-074B,2026-06-18T13:43:32.930688,1.00271511,.00007767,0.0085,101.9714,173.2693,6.4569,0,U,43633,999,2835,0,-.37E-6,0
AT&T T-16,2019-034A,2026-06-18T12:26:33.780192,1.00272817,.00007128,0.0213,64.3039,241.0117,47.2208,0,U,44333,999,2564,0,-.122E-5,0
INTELSAT 39 (IS-39),2019-049B,2026-06-18T14:12:50.234976,1.00273932,.0000901,0.0192,7.9058,304.4232,229.6669,0,U,44476,999,2514,0,0,0
GALAXY 30 (G-30),2020-056C,2026-06-18T14:02:23.625024,1.00272092,.00021436,0.0005,358.2439,87.8738,266.2948,0,U,46114,999,2130,0,.31E-6,0
GALAXY 33 (G-33),2022-128A,2026-06-18T14:00:01.351872,1.00269760,.000165,0.0166,41.1207,41.8279,260.8775,0,U,54026,999,1375,0,.73E-6,0
GALAXY 34 (G-34),2022-128B,2026-06-18T15:26:01.500288,1.00274211,.0001513,0.0104,30.3042,67.6466,271.4326,0,U,54027,999,1392,0,.52E-6,0
GALAXY 31 (G-31),2022-153A,2026-06-18T14:03:31.017024,1.00271552,.0001087,0.0167,73.5964,4.7088,278.3816,0,U,54243,999,714,0,.7E-7,0
GALAXY 32 (G-32),2022-153B,2026-06-18T14:12:00.204192,1.00271685,.00020803,0.0111,25.1390,9.2508,354.4398,0,U,54244,999,1315,0,-.181E-5,0
GALAXY 35 (G-35),2022-170A,2026-06-18T12:28:48.564192,1.00271956,.00018005,0.0147,40.8490,42.9723,277.0248,0,U,54741,999,1290,0,-.168E-5,0
GALAXY 36 (G-36),2022-170B,2026-06-18T15:01:45.949728,1.00272554,.00025126,0.0139,170.5363,273.4342,319.3284,0,U,54742,999,1278,0,-.192E-5,0
GALAXY 37 (G-37),2023-112A,2026-06-18T14:01:46.185312,1.00270120,.0001909,0.0185,339.4936,106.0391,264.7299,0,U,57493,999,1055,0,.42E-6,0
